{
"type": "FeatureCollection",
"name": "irqtkw",
"crs": { "type": "name", "properties": { "name": "urn:ogc:def:crs:OGC:1.3:CRS84" } },
"features": [
{ "type": "Feature", "properties": { "OBJECTID_1": 73725.0, "OBJECTID": 73725, "Code": "47-13", "ID": "S48P0150020004", "Class": "Electricity", "Sub_Class": "4 Pole Electrical Transformers(11KV to 440V)", "Sector": "S48C", "Ward_No": "22", "Top_height": "320.79", "X": "668348.77", "Y": "3396164.81", "Ground_Hei": "313.79", "LET_CFT_TL": null, "Junction": null, "Id1": "614", "Number": "DT_615", "Feeder": "11  KV Sector-48 UG From Sector-47", "Remark": null, "Rating": "315 KVA", "Name": "DT2" }, "geometry": { "type": "MultiPoint", "coordinates": [ [ 76.757581992306783, 30.686389112557229, 313.795199999993201 ] ] } },
{ "type": "Feature", "properties": { "OBJECTID_1": 73726.0, "OBJECTID": 73726, "Code": "47-13", "ID": "S48P0150020005", "Class": "Electricity", "Sub_Class": "4 Pole Electrical Transformers(11KV to 440V)", "Sector": "S48C", "Ward_No": "22", "Top_height": "319.8", "X": "668159.38", "Y": "3396180.78", "Ground_Hei": "312.8", "LET_CFT_TL": null, "Junction": null, "Id1": "615", "Number": "DT_616", "Feeder": "11  KV Sector-48 UG From Sector-47", "Remark": null, "Rating": "315 KVA", "Name": "DT3" }, "geometry": { "type": "MultiPoint", "coordinates": [ [ 76.755608130696174, 30.686559863131169, 312.802299999995739 ] ] } },
{ "type": "Feature", "properties": { "OBJECTID_1": 73727.0, "OBJECTID": 73727, "Code": "47-13", "ID": "S48P0150020006", "Class": "Electricity", "Sub_Class": "4 Pole Electrical Transformers(11KV to 440V)", "Sector": "S48C", "Ward_No": "22", "Top_height": "319.77", "X": "668156.49", "Y": "3396184.44", "Ground_Hei": "312.77", "LET_CFT_TL": null, "Junction": null, "Id1": "616", "Number": "DT_617", "Feeder": "11  KV Sector-48 UG From Sector-47", "Remark": null, "Rating": "315 KVA", "Name": "DT4" }, "geometry": { "type": "MultiPoint", "coordinates": [ [ 76.755578644670635, 30.686593245689213, 312.778099999995902 ] ] } },
{ "type": "Feature", "properties": { "OBJECTID_1": 73728.0, "OBJECTID": 73728, "Code": "47-13", "ID": "S48P0150020007", "Class": "Electricity", "Sub_Class": "4 Pole Electrical Transformers(11KV to 440V)", "Sector": "S48C", "Ward_No": "22", "Top_height": "320.92", "X": "668570.97", "Y": "3396186.25", "Ground_Hei": "313.92", "LET_CFT_TL": null, "Junction": null, "Id1": "617", "Number": "DT_618", "Feeder": "11  KV Sector 48 Old From Sector-47", "Remark": null, "Rating": "200 KVA", "Name": "DT5" }, "geometry": { "type": "MultiPoint", "coordinates": [ [ 76.759904418475486, 30.686551082819118, 313.92149999999674 ] ] } },
{ "type": "Feature", "properties": { "OBJECTID_1": 73729.0, "OBJECTID": 73729, "Code": "47-13", "ID": "S48P0150020008", "Class": "Electricity", "Sub_Class": "4 Pole Electrical Transformers(11KV to 440V)", "Sector": "S48C", "Ward_No": "22", "Top_height": "320.31", "X": "668244.77", "Y": "3396279.49", "Ground_Hei": "313.31", "LET_CFT_TL": null, "Junction": null, "Id1": "618", "Number": "DT_619", "Feeder": "11  KV Sector-48 UG From Sector-47", "Remark": null, "Rating": "315 KVA", "Name": "DT6" }, "geometry": { "type": "MultiPoint", "coordinates": [ [ 76.756515419754976, 30.687438076419909, 313.312300000005052 ] ] } },
{ "type": "Feature", "properties": { "OBJECTID_1": 73730.0, "OBJECTID": 73730, "Code": "47-13", "ID": "S48P0150020009", "Class": "Electricity", "Sub_Class": "4 Pole Electrical Transformers(11KV to 440V)", "Sector": "S48C", "Ward_No": "22", "Top_height": "320.31", "X": "668242.35", "Y": "3396283.16", "Ground_Hei": "313.31", "LET_CFT_TL": null, "Junction": null, "Id1": "619", "Number": "DT_620", "Feeder": "11  KV Sector-48 UG From Sector-47", "Remark": null, "Rating": "315 KVA", "Name": "DT7" }, "geometry": { "type": "MultiPoint", "coordinates": [ [ 76.756490795222234, 30.687471581973785, 313.314799999992829 ] ] } },
{ "type": "Feature", "properties": { "OBJECTID_1": 73731.0, "OBJECTID": 73731, "Code": "47-13", "ID": "S48P0150020010", "Class": "Electricity", "Sub_Class": "4 Pole Electrical Transformers(11KV to 440V)", "Sector": "S48C", "Ward_No": "22", "Top_height": "320.58", "X": "668334.67", "Y": "3396300.87", "Ground_Hei": "313.58", "LET_CFT_TL": null, "Junction": null, "Id1": "620", "Number": "DT_621", "Feeder": "11  KV Sector-48 UG From Sector-47", "Remark": null, "Rating": "315 KVA", "Name": "DT8" }, "geometry": { "type": "MultiPoint", "coordinates": [ [ 76.757457119219595, 30.687618283248884, 313.587499999994179 ] ] } },
{ "type": "Feature", "properties": { "OBJECTID_1": 73732.0, "OBJECTID": 73732, "Code": "47-13", "ID": "S48P0150020011", "Class": "Electricity", "Sub_Class": "4 Pole Electrical Transformers(11KV to 440V)", "Sector": "S48C", "Ward_No": "22", "Top_height": "320.59", "X": "668339.29", "Y": "3396304.47", "Ground_Hei": "313.59", "LET_CFT_TL": null, "Junction": null, "Id1": "621", "Number": "DT_622", "Feeder": "11  KV Sector-48 UG From Sector-47", "Remark": null, "Rating": "315 KVA", "Name": "DT9" }, "geometry": { "type": "MultiPoint", "coordinates": [ [ 76.757505912274027, 30.687650059199729, 313.592099999994389 ] ] } },
{ "type": "Feature", "properties": { "OBJECTID_1": 73733.0, "OBJECTID": 73733, "Code": "47-13", "ID": "S48P0150020012", "Class": "Electricity", "Sub_Class": "4 Pole Electrical Transformers(11KV to 440V)", "Sector": "S48D", "Ward_No": "22", "Top_height": "319.65", "X": "667895.81", "Y": "3396336.27", "Ground_Hei": "312.65", "LET_CFT_TL": null, "Junction": null, "Id1": "622", "Number": "DT_623", "Feeder": "11  KV Sector-48 UG From Sector-47", "Remark": null, "Rating": "200 KVA", "Name": "DT10" }, "geometry": { "type": "MultiPoint", "coordinates": [ [ 76.752882946318536, 30.687999466747254, 312.650500000003376 ] ] } },
{ "type": "Feature", "properties": { "OBJECTID_1": 73738.0, "OBJECTID": 73738, "Code": "47-13", "ID": "S48P0150020001", "Class": "Electricity", "Sub_Class": "4 Pole Electrical Transformers(11KV to 440V)", "Sector": "S48A", "Ward_No": "22", "Top_height": "321.88", "X": "668411.71", "Y": "3396524.43", "Ground_Hei": "314.88", "LET_CFT_TL": null, "Junction": null, "Id1": "627", "Number": "DT_628", "Feeder": "11  KV Sector-48 A+B From Sector-47", "Remark": null, "Rating": "315 KVA", "Name": "DT11" }, "geometry": { "type": "MultiPoint", "coordinates": [ [ 76.758297675689363, 30.689623756796443, 314.885500000003958 ] ] } },
{ "type": "Feature", "properties": { "OBJECTID_1": 73742.0, "OBJECTID": 73742, "Code": "47-13", "ID": "S48P0150020002", "Class": "Electricity", "Sub_Class": "4 Pole Electrical Transformers(11KV to 440V)", "Sector": "S48A", "Ward_No": "22", "Top_height": "321.85", "X": "668290.29", "Y": "3396605.5", "Ground_Hei": "314.85", "LET_CFT_TL": null, "Junction": null, "Id1": "631", "Number": "DT_632", "Feeder": "11  KV Sector-48 A+B From Sector-47", "Remark": null, "Rating": "315 KVA", "Name": "DT12" }, "geometry": { "type": "MultiPoint", "coordinates": [ [ 76.757043781832508, 30.690372123766025, 314.855999999999767 ] ] } },
{ "type": "Feature", "properties": { "OBJECTID_1": 74791.0, "OBJECTID": 74791, "Code": "47-12", "ID": "S48P0150010012", "Class": "Electricity", "Sub_Class": "11 KV Package Transformer", "Sector": "S48C", "Ward_No": "22", "Top_height": "322.22", "X": "668357.83", "Y": "3396162.34", "Ground_Hei": "313.72", "LET_CFT_TL": null, "Junction": null, "Id1": "1680", "Number": "DT_1681", "Feeder": "11  KV Sector-48 UG From Sector-47", "Remark": null, "Rating": "100 KVA", "Name": "DT13" }, "geometry": { "type": "MultiPoint", "coordinates": [ [ 76.75767620669707, 30.686365566648927, 313.727700000003097 ] ] } },
{ "type": "Feature", "properties": { "OBJECTID_1": 74792.0, "OBJECTID": 74792, "Code": "47-12", "ID": "S48P0150010013", "Class": "Electricity", "Sub_Class": "11 KV Package Transformer", "Sector": "S48C", "Ward_No": "22", "Top_height": "322.28", "X": "668551.47", "Y": "3396172.29", "Ground_Hei": "313.78", "LET_CFT_TL": null, "Junction": null, "Id1": "1681", "Number": "DT_1682", "Feeder": "11  KV Sector 48 Old From Sector-47", "Remark": null, "Rating": "300 KVA", "Name": "DT14" }, "geometry": { "type": "MultiPoint", "coordinates": [ [ 76.759698609777487, 30.686427885947424, 313.782699999996112 ] ] } },
{ "type": "Feature", "properties": { "OBJECTID_1": 74795.0, "OBJECTID": 74795, "Code": "47-12", "ID": "S48P0150010010", "Class": "Electricity", "Sub_Class": "11 KV Package Transformer", "Sector": "S48B", "Ward_No": "22", "Top_height": "323.57", "X": "668692.41", "Y": "3396410.32", "Ground_Hei": "315.07", "LET_CFT_TL": null, "Junction": null, "Id1": "1684", "Number": "DT_1685", "Feeder": "11  KV Sector-48 UG From Sector-47", "Remark": null, "Rating": "100 KVA", "Name": "DT15" }, "geometry": { "type": "MultiPoint", "coordinates": [ [ 76.761366199025218, 30.688652216085035, 315.075200000006589 ] ] } },
{ "type": "Feature", "properties": { "OBJECTID_1": 74796.0, "OBJECTID": 74796, "Code": "47-12", "ID": "S48P0150010014", "Class": "Electricity", "Sub_Class": "11 KV Package Transformer", "Sector": "S48D", "Ward_No": "22", "Top_height": "321.98", "X": "668015.73", "Y": "3396425.54", "Ground_Hei": "313.48", "LET_CFT_TL": null, "Junction": null, "Id1": "1685", "Number": "DT_1686", "Feeder": "11  KV Sector-48 UG From Sector-47", "Remark": null, "Rating": "100 KVA", "Name": "DT16" }, "geometry": { "type": "MultiPoint", "coordinates": [ [ 76.754148976479385, 30.688787699517984, 313.486600000003818 ] ] } },
{ "type": "Feature", "properties": { "OBJECTID_1": 74797.0, "OBJECTID": 74797, "Code": "47-12", "ID": "S48P0150010011", "Class": "Electricity", "Sub_Class": "11 KV Package Transformer", "Sector": "S48B", "Ward_No": "22", "Top_height": "325.29", "X": "669127.1", "Y": "3396457.59", "Ground_Hei": "316.79", "LET_CFT_TL": null, "Junction": null, "Id1": "1686", "Number": "DT_1687", "Feeder": "11  KV Sector 48 Old From Sector-47", "Remark": null, "Rating": "315 KVA", "Name": "DT17" }, "geometry": { "type": "MultiPoint", "coordinates": [ [ 76.765752716634367, 30.688919595890113, 316.799499999993714 ] ] } },
{ "type": "Feature", "properties": { "OBJECTID_1": 74798.0, "OBJECTID": 74798, "Code": "47-12", "ID": "S48P0150010015", "Class": "Electricity", "Sub_Class": "11 KV Package Transformer", "Sector": "S48D", "Ward_No": "22", "Top_height": "322.65", "X": "668157.44", "Y": "3396531.78", "Ground_Hei": "314.15", "LET_CFT_TL": null, "Junction": null, "Id1": "1687", "Number": "DT_1688", "Feeder": "11  KV Sector-48 UG From Sector-47", "Remark": null, "Rating": "100 KVA", "Name": "DT18" }, "geometry": { "type": "MultiPoint", "coordinates": [ [ 76.755645247238505, 30.689725909760352, 314.158800000004703 ] ] } },
{ "type": "Feature", "properties": { "OBJECTID_1": 74800.0, "OBJECTID": 74800, "Code": "47-12", "ID": "S48P0150010001", "Class": "Electricity", "Sub_Class": "11 KV Package Transformer", "Sector": "S48A", "Ward_No": "22", "Top_height": "323.25", "X": "668260.76", "Y": "3396583.06", "Ground_Hei": "314.75", "LET_CFT_TL": null, "Junction": null, "Id1": "1689", "Number": "DT_1690", "Feeder": "11  KV Sector-48 UG From Sector-47", "Remark": null, "Rating": "63 KVA", "Name": "DT19" }, "geometry": { "type": "MultiPoint", "coordinates": [ [ 76.756728933432399, 30.690171717807665, 314.751699999993434 ] ] } },
{ "type": "Feature", "properties": { "OBJECTID_1": 74803.0, "OBJECTID": 74803, "Code": "47-12", "ID": "S48P0150010002", "Class": "Electricity", "Sub_Class": "11 KV Package Transformer", "Sector": "S48A", "Ward_No": "22", "Top_height": "324.54", "X": "668601.74", "Y": "3396731.1", "Ground_Hei": "316.04", "LET_CFT_TL": null, "Junction": null, "Id1": "1692", "Number": "DT_1693", "Feeder": "11  KV Sector-48 A+B From Sector-47", "Remark": null, "Rating": "200 KVA", "Name": "DT20" }, "geometry": { "type": "MultiPoint", "coordinates": [ [ 76.760314681819239, 30.691460963006232, 316.048999999999069 ] ] } },
{ "type": "Feature", "properties": { "OBJECTID_1": 74804.0, "OBJECTID": 74804, "Code": "47-12", "ID": "S48P0150010003", "Class": "Electricity", "Sub_Class": "11 KV Package Transformer", "Sector": "S48A", "Ward_No": "22", "Top_height": "324.27", "X": "668599.54", "Y": "3396744.54", "Ground_Hei": "315.77", "LET_CFT_TL": null, "Junction": null, "Id1": "1693", "Number": "DT_1694", "Feeder": "11  KV Sector-48 A+B From Sector-47", "Remark": null, "Rating": "200 KVA", "Name": "DT21" }, "geometry": { "type": "MultiPoint", "coordinates": [ [ 76.760294004039835, 30.691582425978623, 315.776500000007218 ] ] } },
{ "type": "Feature", "properties": { "OBJECTID_1": 74806.0, "OBJECTID": 74806, "Code": "47-12", "ID": "S48P0150010004", "Class": "Electricity", "Sub_Class": "11 KV Package Transformer", "Sector": "S48A", "Ward_No": "22", "Top_height": "323.98", "X": "668420.68", "Y": "3396770.13", "Ground_Hei": "315.48", "LET_CFT_TL": null, "Junction": null, "Id1": "1695", "Number": "DT_1696", "Feeder": "11  KV Sector-48 A+B From Sector-47", "Remark": null, "Rating": "315 KVA", "Name": "DT22" }, "geometry": { "type": "MultiPoint", "coordinates": [ [ 76.758431490895205, 30.691838592235907, 315.482799999997951 ] ] } },
{ "type": "Feature", "properties": { "OBJECTID_1": 74807.0, "OBJECTID": 74807, "Code": "47-12", "ID": "S48P0150010005", "Class": "Electricity", "Sub_Class": "11 KV Package Transformer", "Sector": "S48A", "Ward_No": "22", "Top_height": "325.26", "X": "668777.03", "Y": "3396774.05", "Ground_Hei": "316.76", "LET_CFT_TL": null, "Junction": null, "Id1": "1696", "Number": "DT_1697", "Feeder": "11  KV Sector-48 A+B From Sector-47", "Remark": null, "Rating": "100 KVA", "Name": "DT23" }, "geometry": { "type": "MultiPoint", "coordinates": [ [ 76.762151218334793, 30.69182345914334, 316.76940000000468 ] ] } },
{ "type": "Feature", "properties": { "OBJECTID_1": 74808.0, "OBJECTID": 74808, "Code": "47-12", "ID": "S48P0150010006", "Class": "Electricity", "Sub_Class": "11 KV Package Transformer", "Sector": "S48A", "Ward_No": "22", "Top_height": "324.77", "X": "668399.93", "Y": "3396814.16", "Ground_Hei": "316.27", "LET_CFT_TL": null, "Junction": null, "Id1": "1697", "Number": "DT_1698", "Feeder": "11  KV Sector-48 A+B From Sector-47", "Remark": null, "Rating": "200 KVA", "Name": "DT24" }, "geometry": { "type": "MultiPoint", "coordinates": [ [ 76.758233590156564, 30.692243622769471, 316.279200000004494 ] ] } },
{ "type": "Feature", "properties": { "OBJECTID_1": 74809.0, "OBJECTID": 74809, "Code": "47-12", "ID": "S48P0150010007", "Class": "Electricity", "Sub_Class": "11 KV Package Transformer", "Sector": "S48A", "Ward_No": "22", "Top_height": "324.9", "X": "668522.13", "Y": "3396883.74", "Ground_Hei": "316.4", "LET_CFT_TL": null, "Junction": null, "Id1": "1698", "Number": "DT_1699", "Feeder": "11  KV Sector-48 A+B From Sector-47", "Remark": null, "Rating": "63 KVA", "Name": "DT25" }, "geometry": { "type": "MultiPoint", "coordinates": [ [ 76.759508901292989, 30.692848908978323, 316.408400000000256 ] ] } },
{ "type": "Feature", "properties": { "OBJECTID_1": 74811.0, "OBJECTID": 74811, "Code": "47-12", "ID": "S48P0150010008", "Class": "Electricity", "Sub_Class": "11 KV Package Transformer", "Sector": "S48A", "Ward_No": "22", "Top_height": "325.32", "X": "668663.06", "Y": "3396902.22", "Ground_Hei": "316.82", "LET_CFT_TL": null, "Junction": null, "Id1": "1700", "Number": "DT_1701", "Feeder": "11  KV Sector-48 A+B From Sector-47", "Remark": null, "Rating": "200 KVA", "Name": "DT26" }, "geometry": { "type": "MultiPoint", "coordinates": [ [ 76.760982737188002, 30.692995676142726, 316.822400000004563 ] ] } },
{ "type": "Feature", "properties": { "OBJECTID_1": 74812.0, "OBJECTID": 74812, "Code": "47-12", "ID": "S48P0150010009", "Class": "Electricity", "Sub_Class": "11 KV Package Transformer", "Sector": "S48A", "Ward_No": "22", "Top_height": "325.2", "X": "668473.67", "Y": "3396940.13", "Ground_Hei": "316.7", "LET_CFT_TL": null, "Junction": null, "Id1": "1701", "Number": "DT_1702", "Feeder": "11  KV Sector-48 A+B From Sector-47", "Remark": null, "Rating": "400 KVA", "Name": "DT27" }, "geometry": { "type": "MultiPoint", "coordinates": [ [ 76.759065066146803, 30.693384780624992, 316.706399999995483 ] ] } },
{ "type": "Feature", "properties": { "OBJECTID_1": 0.0, "OBJECTID": 0, "Code": null, "ID": null, "Class": null, "Sub_Class": null, "Sector": null, "Ward_No": null, "Top_height": null, "X": null, "Y": null, "Ground_Hei": null, "LET_CFT_TL": null, "Junction": null, "Id1": null, "Number": null, "Feeder": "11  KV Sector 48 Old From Sector-47", "Remark": null, "Rating": "500 KVA", "Name": "DT28" }, "geometry": { "type": "MultiPoint", "coordinates": [ [ 76.761381824554817, 30.686867593652615, 0.0 ] ] } },
{ "type": "Feature", "properties": { "OBJECTID_1": 0.0, "OBJECTID": 0, "Code": null, "ID": null, "Class": null, "Sub_Class": null, "Sector": null, "Ward_No": null, "Top_height": null, "X": null, "Y": null, "Ground_Hei": null, "LET_CFT_TL": null, "Junction": null, "Id1": null, "Number": null, "Feeder": "11  KV Sector 48 Old From Sector-47", "Remark": null, "Rating": "500 KVA", "Name": "DT29" }, "geometry": { "type": "MultiPoint", "coordinates": [ [ 76.761393180663347, 30.686853779878604, 0.0 ] ] } },
{ "type": "Feature", "properties": { "OBJECTID_1": 0.0, "OBJECTID": 0, "Code": null, "ID": null, "Class": null, "Sub_Class": null, "Sector": null, "Ward_No": null, "Top_height": null, "X": null, "Y": null, "Ground_Hei": null, "LET_CFT_TL": null, "Junction": null, "Id1": null, "Number": null, "Feeder": "11  KV Sector 48 Old From Sector-47", "Remark": null, "Rating": "630 KVA", "Name": "DT30" }, "geometry": { "type": "MultiPoint", "coordinates": [ [ 76.761492267001529, 30.688230362316983, 0.0 ] ] } },
{ "type": "Feature", "properties": { "OBJECTID_1": 0.0, "OBJECTID": 0, "Code": null, "ID": null, "Class": null, "Sub_Class": null, "Sector": null, "Ward_No": null, "Top_height": null, "X": null, "Y": null, "Ground_Hei": null, "LET_CFT_TL": null, "Junction": null, "Id1": null, "Number": null, "Feeder": "11  KV Sector 48 Old From Sector-47", "Remark": null, "Rating": "630 KVA", "Name": "DT31" }, "geometry": { "type": "MultiPoint", "coordinates": [ [ 76.761457329109845, 30.688210346627958, 0.0 ] ] } },
{ "type": "Feature", "properties": { "OBJECTID_1": 0.0, "OBJECTID": 0, "Code": null, "ID": null, "Class": null, "Sub_Class": null, "Sector": null, "Ward_No": null, "Top_height": null, "X": null, "Y": null, "Ground_Hei": null, "LET_CFT_TL": null, "Junction": null, "Id1": null, "Number": null, "Feeder": "11  KV Sector 48 Old From Sector-47", "Remark": null, "Rating": "400 KVA", "Name": "DT32" }, "geometry": { "type": "MultiPoint", "coordinates": [ [ 76.764601643030659, 30.688876682630756, 0.0 ] ] } },
{ "type": "Feature", "properties": { "OBJECTID_1": 0.0, "OBJECTID": 0, "Code": null, "ID": null, "Class": null, "Sub_Class": null, "Sector": null, "Ward_No": null, "Top_height": null, "X": null, "Y": null, "Ground_Hei": null, "LET_CFT_TL": null, "Junction": null, "Id1": null, "Number": null, "Feeder": "11  KV Sector 48 Old From Sector-47", "Remark": null, "Rating": "1000 KVA", "Name": "DT33" }, "geometry": { "type": "MultiPoint", "coordinates": [ [ 76.763885163607853, 30.689702585730259, 0.0 ] ] } },
{ "type": "Feature", "properties": { "OBJECTID_1": 0.0, "OBJECTID": 0, "Code": null, "ID": null, "Class": null, "Sub_Class": null, "Sector": null, "Ward_No": null, "Top_height": null, "X": null, "Y": null, "Ground_Hei": null, "LET_CFT_TL": null, "Junction": null, "Id1": null, "Number": null, "Feeder": "11  KV Sector 48 Old From Sector-47", "Remark": null, "Rating": "400 KVA", "Name": "DT34" }, "geometry": { "type": "MultiPoint", "coordinates": [ [ 76.761738389380326, 30.690033310380176, 0.0 ] ] } },
{ "type": "Feature", "properties": { "OBJECTID_1": 0.0, "OBJECTID": 0, "Code": null, "ID": null, "Class": null, "Sub_Class": null, "Sector": null, "Ward_No": null, "Top_height": null, "X": null, "Y": null, "Ground_Hei": null, "LET_CFT_TL": null, "Junction": null, "Id1": null, "Number": null, "Feeder": "11  KV Sector-48 UG From Sector-47", "Remark": null, "Rating": "630 KVA", "Name": "DT35" }, "geometry": { "type": "MultiPoint", "coordinates": [ [ 76.757596839226338, 30.686621990344428, 0.0 ] ] } },
{ "type": "Feature", "properties": { "OBJECTID_1": 0.0, "OBJECTID": 0, "Code": null, "ID": null, "Class": null, "Sub_Class": null, "Sector": null, "Ward_No": null, "Top_height": null, "X": null, "Y": null, "Ground_Hei": null, "LET_CFT_TL": null, "Junction": null, "Id1": null, "Number": null, "Feeder": "11  KV Sector-48 UG From Sector-47", "Remark": null, "Rating": "315 KVA", "Name": "DT36" }, "geometry": { "type": "MultiPoint", "coordinates": [ [ 76.757593890535077, 30.686397924855896, 0.0 ] ] } },
{ "type": "Feature", "properties": { "OBJECTID_1": 0.0, "OBJECTID": 0, "Code": null, "ID": null, "Class": null, "Sub_Class": null, "Sector": null, "Ward_No": null, "Top_height": null, "X": null, "Y": null, "Ground_Hei": null, "LET_CFT_TL": null, "Junction": null, "Id1": null, "Number": null, "Feeder": "11  KV Sector-48 A+B From Sector-47", "Remark": null, "Rating": "400 KVA", "Name": "DT37" }, "geometry": { "type": "MultiPoint", "coordinates": [ [ 76.760337988249447, 30.691476196811212, 0.0 ] ] } },
{ "type": "Feature", "properties": { "OBJECTID_1": 0.0, "OBJECTID": 0, "Code": null, "ID": null, "Class": null, "Sub_Class": null, "Sector": null, "Ward_No": null, "Top_height": null, "X": null, "Y": null, "Ground_Hei": null, "LET_CFT_TL": null, "Junction": null, "Id1": null, "Number": null, "Feeder": "11  KV Sector-48 A+B From Sector-47", "Remark": null, "Rating": "400 KVA", "Name": "DT38" }, "geometry": { "type": "MultiPoint", "coordinates": [ [ 76.760252459578027, 30.691172573349672, 0.0 ] ] } },
{ "type": "Feature", "properties": { "OBJECTID_1": 0.0, "OBJECTID": 0, "Code": null, "ID": null, "Class": null, "Sub_Class": null, "Sector": null, "Ward_No": null, "Top_height": null, "X": null, "Y": null, "Ground_Hei": null, "LET_CFT_TL": null, "Junction": null, "Id1": null, "Number": null, "Feeder": "11  KV Sector-48 A+B From Sector-47", "Remark": null, "Rating": "400 KVA", "Name": "DT39" }, "geometry": { "type": "MultiPoint", "coordinates": [ [ 76.759270997762798, 30.690491148359023, 0.0 ] ] } },
{ "type": "Feature", "properties": { "OBJECTID_1": 0.0, "OBJECTID": 0, "Code": null, "ID": null, "Class": null, "Sub_Class": null, "Sector": null, "Ward_No": null, "Top_height": null, "X": null, "Y": null, "Ground_Hei": null, "LET_CFT_TL": null, "Junction": null, "Id1": null, "Number": null, "Feeder": "11  KV Sector-48 A+B From Sector-47", "Remark": null, "Rating": "400 KVA", "Name": "DT40" }, "geometry": { "type": "MultiPoint", "coordinates": [ [ 76.758400375587669, 30.689751868191102, 0.0 ] ] } },
{ "type": "Feature", "properties": { "OBJECTID_1": 0.0, "OBJECTID": 0, "Code": null, "ID": null, "Class": null, "Sub_Class": null, "Sector": null, "Ward_No": null, "Top_height": null, "X": null, "Y": null, "Ground_Hei": null, "LET_CFT_TL": null, "Junction": null, "Id1": null, "Number": null, "Feeder": "11  KV Sector-48 A+B From Sector-47", "Remark": null, "Rating": "200 KVA", "Name": "DT41" }, "geometry": { "type": "MultiPoint", "coordinates": [ [ 76.758426088367685, 30.69184426252124, 0.0 ] ] } },
{ "type": "Feature", "properties": { "OBJECTID_1": 0.0, "OBJECTID": 0, "Code": null, "ID": null, "Class": null, "Sub_Class": null, "Sector": "48", "Ward_No": null, "Top_height": null, "X": null, "Y": null, "Ground_Hei": null, "LET_CFT_TL": null, "Junction": null, "Id1": null, "Number": null, "Feeder": "11  KV Sector-48 A+B From Sector-47", "Remark": null, "Rating": "400 KVA", "Name": "DT42" }, "geometry": { "type": "MultiPoint", "coordinates": [ [ 76.756613294169213, 30.691814853619476, 0.0 ] ] } },
{ "type": "Feature", "properties": { "OBJECTID_1": 0.0, "OBJECTID": 0, "Code": null, "ID": null, "Class": null, "Sub_Class": null, "Sector": "48", "Ward_No": null, "Top_height": null, "X": null, "Y": null, "Ground_Hei": null, "LET_CFT_TL": null, "Junction": null, "Id1": null, "Number": null, "Feeder": "11  KV Sector-48 A+B From Sector-47", "Remark": null, "Rating": "315 KVA", "Name": "DT43" }, "geometry": { "type": "MultiPoint", "coordinates": [ [ 76.757302644364458, 30.691678873228756, 0.0 ] ] } },
{ "type": "Feature", "properties": { "OBJECTID_1": 0.0, "OBJECTID": 0, "Code": null, "ID": null, "Class": null, "Sub_Class": null, "Sector": "48", "Ward_No": null, "Top_height": null, "X": null, "Y": null, "Ground_Hei": null, "LET_CFT_TL": null, "Junction": null, "Id1": null, "Number": null, "Feeder": "11  KV Sector-48 A+B From Sector-47", "Remark": null, "Rating": "200 KVA", "Name": "DT44" }, "geometry": { "type": "MultiPoint", "coordinates": [ [ 76.758266666048627, 30.692260531986335, 0.0 ] ] } },
{ "type": "Feature", "properties": { "OBJECTID_1": 0.0, "OBJECTID": 0, "Code": null, "ID": null, "Class": null, "Sub_Class": null, "Sector": "48", "Ward_No": null, "Top_height": null, "X": null, "Y": null, "Ground_Hei": null, "LET_CFT_TL": null, "Junction": null, "Id1": null, "Number": null, "Feeder": "11  KV Sector-48 A+B From Sector-47", "Remark": null, "Rating": "315 KVA", "Name": "DT45" }, "geometry": { "type": "MultiPoint", "coordinates": [ [ 76.75952481851472, 30.692856011703622, 0.0 ] ] } },
{ "type": "Feature", "properties": { "OBJECTID_1": 0.0, "OBJECTID": 0, "Code": null, "ID": null, "Class": null, "Sub_Class": null, "Sector": "48", "Ward_No": null, "Top_height": null, "X": null, "Y": null, "Ground_Hei": null, "LET_CFT_TL": null, "Junction": null, "Id1": null, "Number": null, "Feeder": "11  KV Sector-48 A+B From Sector-47", "Remark": null, "Rating": "100 KVA", "Name": "DT46" }, "geometry": { "type": "MultiPoint", "coordinates": [ [ 76.759516998203395, 30.692832822638252, 0.0 ] ] } },
{ "type": "Feature", "properties": { "OBJECTID_1": 0.0, "OBJECTID": 0, "Code": null, "ID": null, "Class": null, "Sub_Class": null, "Sector": "48", "Ward_No": null, "Top_height": null, "X": null, "Y": null, "Ground_Hei": null, "LET_CFT_TL": null, "Junction": null, "Id1": null, "Number": null, "Feeder": "11  KV Sector-48 A+B From Sector-47", "Remark": null, "Rating": "200 KVA", "Name": "DT47" }, "geometry": { "type": "MultiPoint", "coordinates": [ [ 76.76049840264389, 30.691950524049275, 0.0 ] ] } },
{ "type": "Feature", "properties": { "OBJECTID_1": 0.0, "OBJECTID": 0, "Code": null, "ID": null, "Class": null, "Sub_Class": null, "Sector": "48", "Ward_No": null, "Top_height": null, "X": null, "Y": null, "Ground_Hei": null, "LET_CFT_TL": null, "Junction": null, "Id1": null, "Number": null, "Feeder": "11  KV Sector-48 A+B From Sector-47", "Remark": null, "Rating": "630 KVA", "Name": "DT48" }, "geometry": { "type": "MultiPoint", "coordinates": [ [ 76.7577424206507, 30.690539913350168, 0.0 ] ] } },
{ "type": "Feature", "properties": { "OBJECTID_1": 0.0, "OBJECTID": 0, "Code": null, "ID": null, "Class": null, "Sub_Class": null, "Sector": null, "Ward_No": null, "Top_height": null, "X": null, "Y": null, "Ground_Hei": null, "LET_CFT_TL": null, "Junction": null, "Id1": null, "Number": null, "Feeder": "11  KV Sector-48 A+B From Sector-47", "Remark": null, "Rating": "400 KVA", "Name": "DT49" }, "geometry": { "type": "MultiPoint", "coordinates": [ [ 76.758757921547229, 30.691162894337253, 0.0 ] ] } }
]
}
