{
"type": "FeatureCollection",
"name": "jqrbwp",
"crs": { "type": "name", "properties": { "name": "urn:ogc:def:crs:OGC:1.3:CRS84" } },
"features": [
{ "type": "Feature", "properties": { "Name": "DT9", "y": 30.6866, "x": 76.7599, "Pri_Voltag": 11.0, "Sec_Voltag": 0.415, "type": "Feeder", "Inst_Cap": 0.2, "Efficiency": 0.5, "carrier": "AC", "osm_name": "DT9", "control": "PQ", "car_Gen": "none", "Inst_Gen": 0.0 }, "geometry": { "type": "Point", "coordinates": [ 76.759904418475472, 30.686551082819108, 313.92149999999674 ] } },
{ "type": "Feature", "properties": { "Name": "DT10", "y": 30.6864, "x": 76.7597, "Pri_Voltag": 11.0, "Sec_Voltag": 0.415, "type": "Feeder", "Inst_Cap": 0.2, "Efficiency": 0.5, "carrier": "AC", "osm_name": "DT10", "control": "PQ", "car_Gen": "none", "Inst_Gen": 0.0 }, "geometry": { "type": "Point", "coordinates": [ 76.759698609777487, 30.686427885947424, 313.782699999996112 ] } },
{ "type": "Feature", "properties": { "Name": "DT1", "y": 30.6889, "x": 76.7658, "Pri_Voltag": 11.0, "Sec_Voltag": 0.415, "type": "Feeder", "Inst_Cap": 0.2, "Efficiency": 0.5, "carrier": "AC", "osm_name": "DT1", "control": "PQ", "car_Gen": "none", "Inst_Gen": 0.0 }, "geometry": { "type": "Point", "coordinates": [ 76.765752716634367, 30.688919595890113, 316.799499999993714 ] } },
{ "type": "Feature", "properties": { "Name": "DT8", "y": 30.6869, "x": 76.7614, "Pri_Voltag": 11.0, "Sec_Voltag": 0.415, "type": "Feeder\r\nFeeder", "Inst_Cap": 0.2, "Efficiency": 0.5, "carrier": "AC", "osm_name": "DT8", "control": "PQ", "car_Gen": "none", "Inst_Gen": 0.0 }, "geometry": { "type": "Point", "coordinates": [ 76.761381824554817, 30.6868675936526, 0.0 ] } },
{ "type": "Feature", "properties": { "Name": "DT7", "y": 30.6869, "x": 76.7614, "Pri_Voltag": 11.0, "Sec_Voltag": 0.415, "type": "Feeder", "Inst_Cap": 0.2, "Efficiency": 0.5, "carrier": "AC", "osm_name": "DT7", "control": "PQ", "car_Gen": "none", "Inst_Gen": 0.0 }, "geometry": { "type": "Point", "coordinates": [ 76.761393180663333, 30.686853779878604, 0.0 ] } },
{ "type": "Feature", "properties": { "Name": "DT5", "y": 30.6882, "x": 76.7615, "Pri_Voltag": 11.0, "Sec_Voltag": 0.415, "type": "Feeder", "Inst_Cap": 0.2, "Efficiency": 0.5, "carrier": "AC", "osm_name": "DT5", "control": "PQ", "car_Gen": "none", "Inst_Gen": 0.0 }, "geometry": { "type": "Point", "coordinates": [ 76.761492267001529, 30.688230362316983, 0.0 ] } },
{ "type": "Feature", "properties": { "Name": "DT6", "y": 30.6882, "x": 76.7615, "Pri_Voltag": 11.0, "Sec_Voltag": 0.415, "type": "Feeder", "Inst_Cap": 0.2, "Efficiency": 0.5, "carrier": "AC", "osm_name": "DT6", "control": "PQ", "car_Gen": "none", "Inst_Gen": 0.0 }, "geometry": { "type": "Point", "coordinates": [ 76.761457329109845, 30.688210346627958, 0.0 ] } },
{ "type": "Feature", "properties": { "Name": "DT2", "y": 30.6889, "x": 76.7646, "Pri_Voltag": 11.0, "Sec_Voltag": 0.415, "type": "Feeder", "Inst_Cap": 0.2, "Efficiency": 0.5, "carrier": "AC", "osm_name": "DT2", "control": "PQ", "car_Gen": "none", "Inst_Gen": 0.0 }, "geometry": { "type": "Point", "coordinates": [ 76.764601643030673, 30.688876682630756, 0.0 ] } },
{ "type": "Feature", "properties": { "Name": "DT3", "y": 30.6897, "x": 76.7639, "Pri_Voltag": 11.0, "Sec_Voltag": 0.415, "type": "Feeder", "Inst_Cap": 0.2, "Efficiency": 0.5, "carrier": "AC", "osm_name": "DT3", "control": "PQ", "car_Gen": "none", "Inst_Gen": 0.0 }, "geometry": { "type": "Point", "coordinates": [ 76.763885163607853, 30.689702585730259, 0.0 ] } },
{ "type": "Feature", "properties": { "Name": "DT4", "y": 30.69, "x": 76.7617, "Pri_Voltag": 11.0, "Sec_Voltag": 0.415, "type": "Feeder\r\nFeeder", "Inst_Cap": 0.2, "Efficiency": 0.5, "carrier": "AC", "osm_name": "DT4", "control": "PQ", "car_Gen": "none", "Inst_Gen": 0.0 }, "geometry": { "type": "Point", "coordinates": [ 76.761738389380326, 30.690033310380176, 0.0 ] } },
{ "type": "Feature", "properties": { "Name": "SS1", "y": 30.6902, "x": 76.7664, "Pri_Voltag": 33.0, "Sec_Voltag": 11.0, "type": "substation\r\nsubstation", "Inst_Cap": 63.0, "Efficiency": 0.26, "carrier": "AC", "osm_name": "SS1", "control": "Slack", "car_Gen": "Coal", "Inst_Gen": 8.0 }, "geometry": { "type": "Point", "coordinates": [ 76.766392748153848, 30.690212336886301, 0.0 ] } }
]
}
